COSMOS 2251 DEB         
1 40810U 93036BWP 17083.87330981  .00000442  00000-0  13192-3 0  9991
2 40810  74.0385 282.1713 0022839 140.9094 219.3720 14.45753164155619
